CUTE-1 (CO-55)          
1 27844U 03031E   26139.02455346  .00000182  00000+0  97947-4 0  9992
2 27844  98.6744 147.9502 0008279 270.3136  89.7095 14.24315983187522
CUBESAT XI-IV (CO-57)   
1 27848U 03031J   26138.29557300  .00000143  00000+0  81891-4 0  9995
2 27848  98.6776 146.9670 0008279 294.1039  65.9273 14.23603354187123
CUBESAT XI-V            
1 28895U 05043F   26138.36943048  .00000767  00000+0  12888-3 0  9990
2 28895  98.2951 293.3724 0012904 302.7751  57.2212 14.72544221 97365
CUTE-1.7+APD II (CO-65) 
1 32785U 08021C   26139.21050791  .00003070  00000+0  19744-3 0  9999
2 32785  97.8271 120.0366 0010519 121.5393 238.6864 15.09146991980828
CANX-2                  
1 32790U 08021H   26138.44559663  .00001678  00000+0  12145-3 0  9991
2 32790  97.8621 117.6550 0011514 137.7182 222.4934 15.05378382980333
SEEDS II (CO-66)        
1 32791U 08021J   26139.26983122  .00011689  00000+0  38471-3 0  9997
2 32791  97.7523 135.8128 0004761  71.9578 288.2181 15.31665127982860
SWISSCUBE               
1 35932U 09051B   26139.22749706  .00000590  00000+0  12645-3 0  9999
2 35932  98.4054  46.6101 0005778 312.4611  47.6100 14.62418661884925
BEESAT-1                
1 35933U 09051C   26139.22195898  .00000496  00000+0  10960-3 0  9990
2 35933  98.3983  46.3002 0004593 331.8843  28.2109 14.61667178884954
ITUPSAT1                
1 35935U 09051E   26139.18753492  .00000454  00000+0  10393-3 0  9991
2 35935  98.4068  45.4878 0006997 339.3599  20.7317 14.60391532884509
TISAT 1                 
1 36799U 10035E   26139.29608968  .00011916  00000+0  40672-3 0  9991
2 36799  98.0708  83.3131 0002950  41.6426 318.5037 15.30501637863281
AEROCUBE 4.5A           
1 38767U 12048K   26139.29188154  .00126620  00000+0  67964-3 0  9996
2 38767  64.6281 131.2318 0018404 216.1891 143.8019 15.79416106368074
STRAND-1                
1 39090U 13009E   26139.02355178  .00000159  00000+0  67750-4 0  9999
2 39090  98.3916 319.9771 0007840 325.2771  34.7904 14.37144285692870
BRITE-AUSTRIA           
1 39091U 13009F   26139.02389759  .00000100  00000+0  48734-4 0  9999
2 39091  98.3987 319.1827 0009556 333.7343  26.3358 14.36529341692866
NEE-01 PEGASO           
1 39151U 13018B   26139.32407350  .00001348  00000+0  13381-3 0  9991
2 39151  98.1186 282.5303 0011363 257.4653 102.5294 14.93499567706398
POPACS 2                
1 39269U 13055E   26139.11484724  .00009433  00000+0  16217-3 0  9993
2 39269  80.9908 177.4570 0418562 287.3188  68.2651 14.90525258658883
POPACS 3                
1 39270U 13055F   26139.32049307  .00011564  00000+0  27474-3 0  9997
2 39270  81.0018 260.4648 0554740 157.7762 204.8535 14.55394747634358
ZACUBE-1 (TSHEPISOSAT)  
1 39417U 13066B   26139.14344684  .00002951  00000+0  23245-3 0  9990
2 39417  97.8123 101.3230 0041065 350.4398   9.6039 15.00943817676378
WNISAT-1                
1 39423U 13066H   26139.25083405  .00000270  00000+0  58452-4 0  9991
2 39423  97.7167 290.4667 0162244 323.4542  35.5673 14.58021968662519
TRITON-1                
1 39427U 13066M   26139.25610237  .00002293  00000+0  27932-3 0  9999
2 39427  97.8271  49.7223 0089531 329.7230  29.8827 14.81571946669801
GOMX-1                  
1 39430U 13066Q   26139.31285652  .00001234  00000+0  19153-3 0  9999
2 39430  97.6496 341.5969 0129002 169.5818 190.8109 14.69332878665670
CUBEBUG-2 (LO-74)       
1 39440U 13066AA  26139.18963509  .00002048  00000+0  19364-3 0  9997
2 39440  97.8896  88.0549 0059252 122.6964 237.9989 14.93512493672661
NEE-02 KRYSAOR          
1 39441U 13066AB  26139.26541490  .00000950  00000+0  10953-3 0  9993
2 39441  97.8886  78.6919 0066597 163.2693 197.0741 14.86495337671904
FUNCUBE-1 (AO-73)       
1 39444U 13066AE  26138.48756626  .00003751  00000+0  23785-3 0  9997
2 39444  97.8264 109.3260 0034896 306.8242  52.9786 15.09070822675186
UWE-3                   
1 39446U 13066AG  26138.60277945  .00002656  00000+0  23180-3 0  9997
2 39446  97.8682  94.4880 0050461  59.2487 301.3689 14.96745846673158
BRITE-CA1 (TORONTO)     
1 40020U 14033L   26139.29699207  .00000375  00000+0  64130-4 0  9994
2 40020  97.9699 268.7648 0078806  10.4510 349.8313 14.72633047637967
DUCHIFAT-1              
1 40021U 14033M   26139.12335227  .00061236  00000+0  78320-3 0  9994
2 40021  98.0491 194.3373 0006206 171.2568 188.8795 15.59011194651211
NANOSATC-BR1            
1 40024U 14033Q   26139.05468743  .00010544  00000+0  36092-3 0  9995
2 40024  98.0737 168.8823 0001647 285.8827  74.2230 15.30447318649520
QB50P1                  
1 40025U 14033R   26139.27851312  .00004776  00000+0  24013-3 0  9998
2 40025  98.0974 148.4085 0007711 335.9762  24.1109 15.17765963648646
QB50P2                  
1 40032U 14033Y   26138.70778129  .00004027  00000+0  22122-3 0  9995
2 40032  98.0753 133.7642 0005644 277.6790  82.3799 15.14744084648202
PERSEUS-M2              
1 40037U 14033AD  26139.29179013  .00001628  00000+0  15261-3 0  9992
2 40037  97.9964  89.2496 0013256  41.3871 318.8351 14.95417114646461
